{
  "norad_id": 58989,
  "name": "TIRSAT",
  "history": [
    {
      "epoch": "2026-03-28T21:59:05.519904Z",
      "apogee_km": 657.9952350419053,
      "perigee_km": 649.7375534560379,
      "latitude_deg": -6.007986936759442e-05,
      "longitude_deg": -8.591713518934448,
      "height_km": 654.5576923135126,
      "semi_major_axis_km": 7032.003394248971,
      "eccentricity": 0.00058715,
      "inclination_deg": 98.0054,
      "raan_deg": 147.5109,
      "arg_perigee_deg": 56.0284,
      "mean_anomaly_deg": 304.148,
      "mean_motion_rev_day": 14.72258785
    },
    {
      "epoch": "2026-03-29T02:52:41.729952Z",
      "apogee_km": 657.9844314295133,
      "perigee_km": 649.7443322102972,
      "latitude_deg": 3.344425320739978e-05,
      "longitude_deg": -81.9927662278278,
      "height_km": 654.5269361946453,
      "semi_major_axis_km": 7032.001381819905,
      "eccentricity": 0.0005859,
      "inclination_deg": 98.0053,
      "raan_deg": 147.7117,
      "arg_perigee_deg": 55.4609,
      "mean_anomaly_deg": 304.7151,
      "mean_motion_rev_day": 14.72259417
    }
  ]
}